{
  "type": "FeatureCollection",
  "features": [
    {
      "type": "Feature",
      "properties": {
        "norad_id": 2807,
        "name": "OPS 7218 (TRANSIT 16)",
        "group": "nnss",
        "lat": -21.978143219213806,
        "lon": -6.403037044616691,
        "alt_km": 1081.2949786989757,
        "timestamp": "2025-12-21T09:37:22.923083+00:00",
        "meta_object_name": "OPS 7218 (TRANSIT 16)",
        "meta_object_id": "1967-048A",
        "meta_epoch": "2025-12-20T23:20:50.288064",
        "meta_mean_motion": 13.50723938,
        "meta_eccentricity": 0.0022154,
        "meta_inclination": 89.6731,
        "meta_ra_of_asc_node": 353.7431,
        "meta_arg_of_pericenter": 92.1461,
        "meta_mean_anomaly": 325.5076,
        "meta_ephemeris_type": 0,
        "meta_classification_type": "U",
        "meta_norad_cat_id": 2807,
        "meta_element_set_no": 999,
        "meta_rev_at_epoch": 88387,
        "meta_bstar": 0.00014678,
        "meta_mean_motion_dot": 1.05e-06,
        "meta_mean_motion_ddot": 0,
        "tle_line1": "1 02807U 67048A   25354.97280426  .00000105  00000+0  14678-3 0  9993",
        "tle_line2": "2 02807  89.6731 353.7431 0022154  92.1461 325.5076 13.50723938883879"
      },
      "geometry": {
        "type": "Point",
        "coordinates": [
          -6.403037044616691,
          -21.978143219213806
        ]
      }
    },
    {
      "type": "Feature",
      "properties": {
        "norad_id": 2965,
        "name": "OPS 4947 (TRANSIT 17)",
        "group": "nnss",
        "lat": 52.53769076619279,
        "lon": -157.20624428682356,
        "alt_km": 1049.3387804412587,
        "timestamp": "2025-12-21T09:37:22.923106+00:00",
        "meta_object_name": "OPS 4947 (TRANSIT 17)",
        "meta_object_id": "1967-092A",
        "meta_epoch": "2025-12-21T04:00:48.652128",
        "meta_mean_motion": 13.53455665,
        "meta_eccentricity": 0.0046779,
        "meta_inclination": 89.2487,
        "meta_ra_of_asc_node": 23.7927,
        "meta_arg_of_pericenter": 209.4251,
        "meta_mean_anomaly": 220.3395,
        "meta_ephemeris_type": 0,
        "meta_classification_type": "U",
        "meta_norad_cat_id": 2965,
        "meta_element_set_no": 999,
        "meta_rev_at_epoch": 87211,
        "meta_bstar": 0.0001822,
        "meta_mean_motion_dot": 1.34e-06,
        "meta_mean_motion_ddot": 0,
        "tle_line1": "1 02965U 67092A   25355.16722977  .00000134  00000+0  18220-3 0  9990",
        "tle_line2": "2 02965  89.2487  23.7927 0046779 209.4251 220.3395 13.53455665872114"
      },
      "geometry": {
        "type": "Point",
        "coordinates": [
          -157.20624428682356,
          52.53769076619279
        ]
      }
    },
    {
      "type": "Feature",
      "properties": {
        "norad_id": 3133,
        "name": "OPS 7034 (TRANSIT 18)",
        "group": "nnss",
        "lat": -39.22103110937794,
        "lon": 93.64027831535873,
        "alt_km": 1058.1793379090395,
        "timestamp": "2025-12-21T09:37:22.923120+00:00",
        "meta_object_name": "OPS 7034 (TRANSIT 18)",
        "meta_object_id": "1968-012A",
        "meta_epoch": "2025-12-21T01:29:49.321824",
        "meta_mean_motion": 13.51567536,
        "meta_eccentricity": 0.0074649,
        "meta_inclination": 90.0284,
        "meta_ra_of_asc_node": 273.6625,
        "meta_arg_of_pericenter": 145.1624,
        "meta_mean_anomaly": 226.6945,
        "meta_ephemeris_type": 0,
        "meta_classification_type": "U",
        "meta_norad_cat_id": 3133,
        "meta_element_set_no": 999,
        "meta_rev_at_epoch": 57031,
        "meta_bstar": 0.0001688,
        "meta_mean_motion_dot": 1.22e-06,
        "meta_mean_motion_ddot": 0,
        "tle_line1": "1 03133U 68012A   25355.06237641  .00000122  00000+0  16880-3 0  9996",
        "tle_line2": "2 03133  90.0284 273.6625 0074649 145.1624 226.6945 13.51567536570311"
      },
      "geometry": {
        "type": "Point",
        "coordinates": [
          93.64027831535873,
          -39.22103110937794
        ]
      }
    },
    {
      "type": "Feature",
      "properties": {
        "norad_id": 4507,
        "name": "NNSS 19 (TRANSIT 19)",
        "group": "nnss",
        "lat": -0.11376013861326935,
        "lon": 54.539821446980795,
        "alt_km": 1063.9016722757615,
        "timestamp": "2025-12-21T09:37:22.923132+00:00",
        "meta_object_name": "NNSS 19 (TRANSIT 19)",
        "meta_object_id": "1970-067A",
        "meta_epoch": "2025-12-21T03:23:04.185888",
        "meta_mean_motion": 13.51316689,
        "meta_eccentricity": 0.0170232,
        "meta_inclination": 90.005,
        "meta_ra_of_asc_node": 234.5397,
        "meta_arg_of_pericenter": 268.7928,
        "meta_mean_anomaly": 89.3717,
        "meta_ephemeris_type": 0,
        "meta_classification_type": "U",
        "meta_norad_cat_id": 4507,
        "meta_element_set_no": 999,
        "meta_rev_at_epoch": 72335,
        "meta_bstar": 0.00013582,
        "meta_mean_motion_dot": 1.04e-06,
        "meta_mean_motion_ddot": 0,
        "tle_line1": "1 04507U 70067A   25355.14102067  .00000104  00000+0  13582-3 0  9993",
        "tle_line2": "2 04507  90.0050 234.5397 0170232 268.7928  89.3717 13.51316689723350"
      },
      "geometry": {
        "type": "Point",
        "coordinates": [
          54.539821446980795,
          -0.11376013861326935
        ]
      }
    },
    {
      "type": "Feature",
      "properties": {
        "norad_id": 6909,
        "name": "NNSS 20 (TRANSIT 20)",
        "group": "nnss",
        "lat": 17.11140955550362,
        "lon": 74.88012358120862,
        "alt_km": 1033.017812305994,
        "timestamp": "2025-12-21T09:37:22.923144+00:00",
        "meta_object_name": "NNSS 20 (TRANSIT 20)",
        "meta_object_id": "1973-081A",
        "meta_epoch": "2025-12-21T03:35:37.797792",
        "meta_mean_motion": 13.7143837,
        "meta_eccentricity": 0.015638,
        "meta_inclination": 89.8562,
        "meta_ra_of_asc_node": 254.9282,
        "meta_arg_of_pericenter": 53.4084,
        "meta_mean_anomaly": 308.1351,
        "meta_ephemeris_type": 0,
        "meta_classification_type": "U",
        "meta_norad_cat_id": 6909,
        "meta_element_set_no": 999,
        "meta_rev_at_epoch": 80476,
        "meta_bstar": 0.00023688,
        "meta_mean_motion_dot": 2.44e-06,
        "meta_mean_motion_ddot": 0,
        "tle_line1": "1 06909U 73081A   25355.14974303  .00000244  00000+0  23688-3 0  9993",
        "tle_line2": "2 06909  89.8562 254.9282 0156380  53.4084 308.1351 13.71438370804766"
      },
      "geometry": {
        "type": "Point",
        "coordinates": [
          74.88012358120862,
          17.11140955550362
        ]
      }
    },
    {
      "type": "Feature",
      "properties": {
        "norad_id": 10457,
        "name": "TRANSAT",
        "group": "nnss",
        "lat": 67.08934123217718,
        "lon": -102.54320722428136,
        "alt_km": 1057.614104230931,
        "timestamp": "2025-12-21T09:37:22.923155+00:00",
        "meta_object_name": "TRANSAT",
        "meta_object_id": "1977-106A",
        "meta_epoch": "2025-12-21T04:01:21.737280",
        "meta_mean_motion": 13.48944804,
        "meta_eccentricity": 0.0026188,
        "meta_inclination": 89.6479,
        "meta_ra_of_asc_node": 78.2987,
        "meta_arg_of_pericenter": 165.4094,
        "meta_mean_anomaly": 255.1866,
        "meta_ephemeris_type": 0,
        "meta_classification_type": "U",
        "meta_norad_cat_id": 10457,
        "meta_element_set_no": 999,
        "meta_rev_at_epoch": 36857,
        "meta_bstar": 0.00011868,
        "meta_mean_motion_dot": 8.5e-07,
        "meta_mean_motion_ddot": 0,
        "tle_line1": "1 10457U 77106A   25355.16761270  .00000085  00000+0  11868-3 0  9997",
        "tle_line2": "2 10457  89.6479  78.2987 0026188 165.4094 255.1866 13.48944804368574"
      },
      "geometry": {
        "type": "Point",
        "coordinates": [
          -102.54320722428136,
          67.08934123217718
        ]
      }
    },
    {
      "type": "Feature",
      "properties": {
        "norad_id": 12458,
        "name": "NOVA 1",
        "group": "nnss",
        "lat": -64.67949284437584,
        "lon": 90.95124562339771,
        "alt_km": 1189.5807813036536,
        "timestamp": "2025-12-21T09:37:22.923166+00:00",
        "meta_object_name": "NOVA 1",
        "meta_object_id": "1981-044A",
        "meta_epoch": "2025-12-21T01:45:26.265024",
        "meta_mean_motion": 13.23279246,
        "meta_eccentricity": 0.0015849,
        "meta_inclination": 89.8527,
        "meta_ra_of_asc_node": 91.2674,
        "meta_arg_of_pericenter": 83.5202,
        "meta_mean_anomaly": 91.57,
        "meta_ephemeris_type": 0,
        "meta_classification_type": "U",
        "meta_norad_cat_id": 12458,
        "meta_element_set_no": 999,
        "meta_rev_at_epoch": 15296,
        "meta_bstar": 9.315e-05,
        "meta_mean_motion_dot": 4.9e-07,
        "meta_mean_motion_ddot": 0,
        "tle_line1": "1 12458U 81044A   25355.07322066  .00000049  00000+0  93150-4 0  9997",
        "tle_line2": "2 12458  89.8527  91.2674 0015849  83.5202  91.5700 13.23279246152961"
      },
      "geometry": {
        "type": "Point",
        "coordinates": [
          90.95124562339771,
          -64.67949284437584
        ]
      }
    }
  ]
}